{
  "type": "FeatureCollection",
  "features": [
    {
      "type": "Feature",
      "id": "s2-to-shacheng",
      "properties": {
        "lineID": "s2",
        "branchID": "to_shacheng"
      },
      "geometry": {
        "type": "LineString",
        "coordinates": [
          [116.357499, 40.068281],
          [116.310000, 40.120000],
          [116.200000, 40.200000],
          [116.123069, 40.237843],
          [116.080000, 40.300000],
          [115.995546, 40.358639],
          [115.940000, 40.370000],
          [115.892061, 40.378696],
          [115.760000, 40.388000],
          [115.620000, 40.392000],
          [115.510876, 40.396241]
        ]
      }
    },
    {
      "type": "Feature",
      "id": "s2-to-yanqing",
      "properties": {
        "lineID": "s2",
        "branchID": "to_yanqing"
      },
      "geometry": {
        "type": "LineString",
        "coordinates": [
          [116.357499, 40.068281],
          [116.310000, 40.120000],
          [116.200000, 40.200000],
          [116.123069, 40.237843],
          [116.080000, 40.300000],
          [115.995546, 40.358639],
          [115.980000, 40.390000],
          [115.970000, 40.410000],
          [115.976186, 40.435401]
        ]
      }
    },
    {
      "type": "Feature",
      "id": "subcenter-main",
      "properties": {
        "lineID": "subcenter",
        "branchID": "main"
      },
      "geometry": {
        "type": "LineString",
        "coordinates": [
          [116.150210, 39.739984],
          [116.230000, 39.820000],
          [116.315147, 39.895279],
          [116.370000, 39.900000],
          [116.421003, 39.902267],
          [116.450000, 39.903000],
          [116.478679, 39.901461],
          [116.560000, 39.899000],
          [116.657129, 39.896234],
          [116.690903, 39.892822]
        ]
      }
    },
    {
      "type": "Feature",
      "id": "tongmi-main",
      "properties": {
        "lineID": "tongmi",
        "branchID": "main"
      },
      "geometry": {
        "type": "LineString",
        "coordinates": [
          [116.621284, 39.903479],
          [116.635000, 40.020000],
          [116.639721, 40.124791],
          [116.640000, 40.170000],
          [116.642543, 40.202145],
          [116.643000, 40.260000],
          [116.643104, 40.315970],
          [116.648000, 40.350000],
          [116.653382, 40.372599],
          [116.668000, 40.392000],
          [116.686687, 40.408023],
          [116.760000, 40.406000],
          [116.856546, 40.395602]
        ]
      }
    },
    {
      "type": "Feature",
      "id": "huaimi-main",
      "properties": {
        "lineID": "huaimi",
        "branchID": "main"
      },
      "geometry": {
        "type": "LineString",
        "coordinates": [
          [116.347967, 39.940977],
          [116.330000, 39.980000],
          [116.306038, 40.041029],
          [116.265000, 40.120000],
          [116.226967, 40.229890],
          [116.430000, 40.320000],
          [116.653382, 40.372599],
          [116.686687, 40.408023],
          [116.730000, 40.450000],
          [116.789759, 40.488960],
          [116.900000, 40.580000],
          [117.020000, 40.650000],
          [117.135538, 40.690450]
        ]
      }
    }
  ]
}
